[{"OBJECT_NAME":"STARLINK-30049","OBJECT_ID":"2023-056J","EPOCH":"2026-03-09T22:00:01.999584","MEAN_MOTION":15.2395029,"ECCENTRICITY":0.00020823,"INCLINATION":43.0011,"RA_OF_ASC_NODE":207.7366,"ARG_OF_PERICENTER":282.4938,"MEAN_ANOMALY":42.4645,"EPHEMERIS_TYPE":0,"CLASSIFICATION_TYPE":"U","NORAD_CAT_ID":56294,"ELEMENT_SET_NO":999,"REV_AT_EPOCH":577,"BSTAR":0.035657508,"MEAN_MOTION_DOT":0.00952866,"MEAN_MOTION_DDOT":0},{"OBJECT_NAME":"CZ-6A DEB","OBJECT_ID":"2022-151QB","EPOCH":"2026-03-08T18:03:47.471328","MEAN_MOTION":15.32168285,"ECCENTRICITY":0.00205863,"INCLINATION":98.6246,"RA_OF_ASC_NODE":151.4486,"ARG_OF_PERICENTER":181.9757,"MEAN_ANOMALY":178.1404,"EPHEMERIS_TYPE":0,"CLASSIFICATION_TYPE":"U","NORAD_CAT_ID":54890,"ELEMENT_SET_NO":999,"REV_AT_EPOCH":17659,"BSTAR":0.012866954,"MEAN_MOTION_DOT":0.00424465,"MEAN_MOTION_DDOT":0}]
